DUBAISAT-1              
1 35682U 09041B   26204.31060234  .00000735  00000+0  11632-3 0  9991
2 35682  98.0093 337.1822 0009366 320.7560  39.2969 14.75176292910426
OCEANSAT-2              
1 35931U 09051A   26204.22856260  .00000170  00000+0  14195-3 0  9991
2 35931  98.2329 187.4817 0017798 130.5772 229.6947 13.99657062884376
WORLDVIEW-2 (WV-2)      
1 35946U 09055A   26204.27884148  .00000075  00000+0  39153-4 0  9998
2 35946  98.4750 277.2369 0005545 110.6811 249.4971 14.37908592880836
SMOS                    
1 36036U 09059A   26204.11909751  .00000236  00000+0  89103-4 0  9993
2 36036  98.4431  30.9276 0001221  98.4611 261.6715 14.39739437878620
YAOGAN-7                
1 36110U 09069A   26204.17217313  .00000366  00000+0  57804-4 0  9996
2 36110  98.0022  89.8090 0023167 284.2919  75.5719 14.78040795894945
TANDEM-X                
1 36605U 10030A   26203.49713300  .00000152  00000+0  10451-4 0  9996
2 36605  97.4465 210.7021 0001822 100.4354 259.7087 15.19149439892003
CARTOSAT-2B             
1 36795U 10035A   26204.27285926  .00000049  00000+0  13771-4 0  9999
2 36795  97.9935 254.5874 0012723  77.1664 283.0967 14.78656087865180
YAOGAN-10               
1 36834U 10038A   26204.32852660  .00001712  00000+0  20480-3 0  9999
2 36834  97.8978 227.4453 0001647  85.1488   5.2468 14.85448967862572
COSMO-SKYMED 4          
1 37216U 10060A   26204.29186038  .00000487  00000+0  67724-4 0  9995
2 37216  97.8907  27.3699 0001559  86.1194 274.0197 14.82157282849917
RESOURCESAT-2           
1 37387U 11015A   26204.26580936  .00000054  00000+0  44900-4 0  9998
2 37387  98.7625 271.4547 0011996 148.8871 211.3019 14.21600905791305
HAIYANG-2A              
1 37781U 11043A   26204.30866005  .00000098  00000+0  15329-3 0  9996
2 37781  99.3413 206.1486 0001504   5.9400 354.1766 13.73034033751611
RASAT                   
1 37791U 11044D   26204.30447442  .00000321  00000+0  64085-4 0  9991
2 37791  98.0574 295.1507 0021955  78.8599  16.0060 14.68198040798489
SRMSAT                  
1 37841U 11058D   26204.33651532  .00000363  00000+0  53261-4 0  9992
2 37841  19.9701 200.6646 0011560 241.2167 146.8753 14.11582322762932
PLEIADES 1A             
1 38012U 11076F   26204.34978076  .00000129  00000+0  37670-4 0  9995
2 38012  98.1961 278.9641 0001564  78.4908 354.8792 14.58549657777260
ZIYUAN 1-02C (ZY 1-02C) 
1 38038U 11079A   26204.33401412  .00000284  00000+0  10770-3 0  9993
2 38038  98.4053 270.8844 0006200 187.9549 297.9255 14.38240215764407
ARIRANG-3 (KOMPSAT-3)   
1 38338U 12025B   26204.30053551  .00000401  00000+0  88897-4 0  9999
2 38338  98.1190 161.1422 0005685  16.4291 343.7094 14.62234437756621
EXACTVIEW-1 (ADS-1B)    
1 38709U 12039C   26204.26131673  .00000089  00000+0  57710-4 0  9995
2 38709  98.9810 322.4722 0011835  70.2751 289.9703 14.24993914727848
SPOT 6                  
1 38755U 12047A   26204.28263868  .00000004  00000+0  10786-4 0  9998
2 38755  98.2100 271.1653 0001148  95.0499 265.0831 14.58541059738314
PLEIADES 1B             
1 39019U 12068A   26204.30126063  .00000055  00000+0  21644-4 0  9994
2 39019  98.1931 278.8526 0001454  78.5056 281.6307 14.58536890726111
GOKTURK 2               
1 39030U 12073A   26204.29253931 -.00000041  00000+0  86014-6 0  9996
2 39030  97.6818  39.9128 0001168 108.9918 251.1419 14.75571314729830
LANDSAT 8               
1 39084U 13008A   26204.28247628  .00000246  00000+0  64780-4 0  9999
2 39084  98.2283 273.9856 0001332  91.8902 268.2449 14.57098192703153
SARAL                   
1 39086U 13009A   26204.28245376  .00000064  00000+0  39497-4 0  9995
2 39086  98.5560  30.3937 0002165 148.6764 211.4550 14.32897216700778
GAOFEN-1                
1 39150U 13018A   26204.31878060  .00000633  00000+0  97894-4 0  9990
2 39150  97.9078 275.6489 0017797 145.7423 214.4939 14.76525932713577
VNREDSAT 1              
1 39160U 13021B   26204.29132824  .00000184  00000+0  42846-4 0  9991
2 39160  97.9060 256.3182 0001514  82.5447 277.5929 14.64888544705577
ARIRANG-5 (KOMPSAT-5)   
1 39227U 13042A   26204.28013705  .00000811  00000+0  62246-4 0  9996
2 39227  97.6202  30.4733 0004373  33.1306 327.0193 15.04503496709282
SKYSAT-A                
1 39418U 13066C   26204.10142997  .00002435  00000+0  14029-3 0  9990
2 39418  97.3796 252.3539 0021215 185.3381 174.7628 15.13146983693911
DUBAISAT-2              
1 39419U 13066D   26204.24521972  .00003961  00000+0  24462-3 0  9997
2 39419  97.4594 193.4543 0009198 269.4230  90.5945 15.10416500691830
GPM-CORE                
1 39574U 14009C   26204.26639236  .00006175  00000+0  13484-3 0  9994
2 39574  64.9699 187.2337 0010831 264.3467  95.6438 15.45115176703381
SENTINEL-1A             
1 39634U 14016A   26204.16186659 -.00000001  00000+0  95439-5 0  9999
2 39634  98.1698 211.1650 0001447  85.2053 274.9312 14.59173724655268
KAZEOSAT 1              
1 39731U 14024A   26204.31039432  .00000102  00000+0  43945-4 0  9994
2 39731  98.3189 275.8555 0001200  90.4955 269.6372 14.42039433643769
