OBJECT_NAME,OBJECT_ID,EPOCH,MEAN_MOTION,ECCENTRICITY,INCLINATION,RA_OF_ASC_NODE,ARG_OF_PERICENTER,MEAN_ANOMALY,EPHEMERIS_TYPE,CLASSIFICATION_TYPE,NORAD_CAT_ID,ELEMENT_SET_NO,REV_AT_EPOCH,BSTAR,MEAN_MOTION_DOT,MEAN_MOTION_DDOT
DUBAISAT-1,2009-041B,2026-07-23T07:27:16.042176,14.75176292,.00093664,98.0093,337.1822,320.7560,39.2969,0,U,35682,999,91042,.11631747E-3,.735E-5,0
OCEANSAT-2,2009-051A,2026-07-23T05:29:07.808640,13.99657062,.00177988,98.2329,187.4817,130.5772,229.6947,0,U,35931,999,88437,.14194535E-3,.17E-5,0
WORLDVIEW-2 (WV-2),2009-055A,2026-07-23T06:41:31.903872,14.37908592,.00055453,98.4750,277.2369,110.6811,249.4971,0,U,35946,999,88083,.39152841E-4,.75E-6,0
SMOS,2009-059A,2026-07-23T02:51:30.024864,14.39739437,.00012212,98.4431,30.9276,98.4611,261.6715,0,U,36036,999,87862,.89103152E-4,.236E-5,0
YAOGAN-7,2009-069A,2026-07-23T04:07:55.758432,14.78040795,.00231671,98.0022,89.8090,284.2919,75.5719,0,U,36110,999,89494,.57803829E-4,.366E-5,0
TANDEM-X,2010-030A,2026-07-22T11:55:52.291200,15.19149439,.00018225,97.4465,210.7021,100.4354,259.7087,0,U,36605,999,89200,.10450617E-4,.152E-5,0
CARTOSAT-2B,2010-035A,2026-07-23T06:32:55.040064,14.78656087,.00127236,97.9935,254.5874,77.1664,283.0967,0,U,36795,999,86518,.13770699E-4,.49E-6,0
YAOGAN-10,2010-038A,2026-07-23T07:53:04.698240,14.85448967,.00016477,97.8978,227.4453,85.1488,5.2468,0,U,36834,999,86257,.2047956E-3,.1712E-4,0
COSMO-SKYMED 4,2010-060A,2026-07-23T07:00:16.736832,14.82157282,.0001559,97.8907,27.3699,86.1194,274.0197,0,U,37216,999,84991,.67723753E-4,.487E-5,0
RESOURCESAT-2,2011-015A,2026-07-23T06:22:45.928704,14.21600905,.0011996,98.7625,271.4547,148.8871,211.3019,0,U,37387,999,79130,.448999E-4,.54E-6,0
HAIYANG-2A,2011-043A,2026-07-23T07:24:28.228320,13.73034033,.00015044,99.3413,206.1486,5.9400,354.1766,0,U,37781,999,75161,.15328824E-3,.98E-6,0
RASAT,2011-044D,2026-07-23T07:18:26.589888,14.68198040,.00219551,98.0574,295.1507,78.8599,16.0060,0,U,37791,999,79848,.6408522E-4,.321E-5,0
SRMSAT,2011-058D,2026-07-23T08:04:34.923648,14.11582322,.00115608,19.9701,200.6646,241.2167,146.8753,0,U,37841,999,76293,.53261444E-4,.363E-5,0
PLEIADES 1A,2011-076F,2026-07-23T08:23:41.057664,14.58549657,.00015645,98.1961,278.9641,78.4908,354.8792,0,U,38012,999,77726,.37670062E-4,.129E-5,0
ZIYUAN 1-02C (ZY 1-02C),2011-079A,2026-07-23T08:00:58.819968,14.38240215,.00062,98.4053,270.8844,187.9549,297.9255,0,U,38038,999,76440,.10769683E-3,.284E-5,0
ARIRANG-3 (KOMPSAT-3),2012-025B,2026-07-23T07:12:46.268064,14.62234437,.00056859,98.1190,161.1422,16.4291,343.7094,0,U,38338,999,75662,.88897186E-4,.401E-5,0
EXACTVIEW-1 (ADS-1B),2012-039C,2026-07-23T06:16:17.765472,14.24993914,.00118355,98.9810,322.4722,70.2751,289.9703,0,U,38709,999,72784,.57710391E-4,.89E-6,0
SPOT 6,2012-047A,2026-07-23T06:46:59.981952,14.58541059,.00011486,98.2100,271.1653,95.0499,265.0831,0,U,38755,999,73831,.1078596E-4,.4E-7,0
PLEIADES 1B,2012-068A,2026-07-23T07:13:48.918432,14.58536890,.0001454,98.1931,278.8526,78.5056,281.6307,0,U,39019,999,72611,.2164354E-4,.55E-6,0
GOKTURK 2,2012-073A,2026-07-23T07:01:15.396384,14.75571314,.00011683,97.6818,39.9128,108.9918,251.1419,0,U,39030,999,72983,.860139E-6,-.41E-6,0
LANDSAT 8,2013-008A,2026-07-23T06:46:45.950592,14.57098192,.00013329,98.2283,273.9856,91.8902,268.2449,0,U,39084,999,70315,.64780076E-4,.246E-5,0
SARAL,2013-009A,2026-07-23T06:46:44.004864,14.32897216,.00021655,98.5560,30.3937,148.6764,211.4550,0,U,39086,999,70077,.39496564E-4,.64E-6,0
GAOFEN-1,2013-018A,2026-07-23T07:39:02.643840,14.76525932,.00177978,97.9078,275.6489,145.7423,214.4939,0,U,39150,999,71357,.97894361E-4,.633E-5,0
VNREDSAT 1,2013-021B,2026-07-23T06:59:30.759936,14.64888544,.00015145,97.9060,256.3182,82.5447,277.5929,0,U,39160,999,70557,.42846439E-4,.184E-5,0
ARIRANG-5 (KOMPSAT-5),2013-042A,2026-07-23T06:43:23.841120,15.04503496,.0004373,97.6202,30.4733,33.1306,327.0193,0,U,39227,999,70928,.6224564E-4,.811E-5,0
SKYSAT-A,2013-066C,2026-07-23T02:26:03.549408,15.13146983,.00212159,97.3796,252.3539,185.3381,174.7628,0,U,39418,999,69391,.14028509E-3,.2435E-4,0
DUBAISAT-2,2013-066D,2026-07-23T05:53:06.983808,15.10416500,.00091986,97.4594,193.4543,269.4230,90.5945,0,U,39419,999,69183,.24461646E-3,.3961E-4,0
GPM-CORE,2014-009C,2026-07-23T06:23:36.299904,15.45115176,.00108315,64.9699,187.2337,264.3467,95.6438,0,U,39574,999,70338,.13484073E-3,.6175E-4,0
SENTINEL-1A,2014-016A,2026-07-23T03:53:05.273376,14.59173724,.00014476,98.1698,211.1650,85.2053,274.9312,0,U,39634,999,65526,.9543903E-5,-.1E-7,0
KAZEOSAT 1,2014-024A,2026-07-23T07:26:58.069248,14.42039433,.00012008,98.3189,275.8555,90.4955,269.6372,0,U,39731,999,64376,.43944993E-4,.102E-5,0
